$$SOE
2460161.500000000, A.D. 2023-Aug-05 00:00:00.0000, -2.413014912226502E+08, 3.886918329407107E+08, 1.965242098865095E+07,
2460168.500000000, A.D. 2023-Aug-12 00:00:00.0000, -2.500472186749094E+08, 3.828456872332310E+08, 1.915173600905874E+07,
2460175.500000000, A.D. 2023-Aug-19 00:00:00.0000, -2.586663553178645E+08, 3.768056531960913E+08, 1.864135344705987E+07,
2460182.500000000, A.D. 2023-Aug-26 00:00:00.0000, -2.671543297541023E+08, 3.705744823336297E+08, 1.812151682276489E+07,
2460189.500000000, A.D. 2023-Sep-02 00:00:00.0000, -2.755066320649855E+08, 3.641550452247362E+08, 1.759247587710351E+07,
2460196.500000000, A.D. 2023-Sep-09 00:00:00.0000, -2.837188174687037E+08, 3.575503300220423E+08, 1.705448641561651E+07,
2460203.500000000, A.D. 2023-Sep-16 00:00:00.0000, -2.917865097635148E+08, 3.507634406461487E+08, 1.650781011314555E+07,
2460210.500000000, A.D. 2023-Sep-23 00:00:00.0000, -2.997054041337987E+08, 3.437975949619884E+08, 1.595271426488777E+07,
2460217.500000000, A.D. 2023-Sep-30 00:00:00.0000, -3.074712696531257E+08, 3.366561241287862E+08, 1.538947161253710E+07,
2460224.500000000, A.D. 2023-Oct-07 00:00:00.0000, -3.150799538333424E+08, 3.293424725831869E+08, 1.481836041730282E+07,
2460231.500000000, A.D. 2023-Oct-14 00:00:00.0000, -3.225273881728685E+08, 3.218601953451099E+08, 1.423966441396907E+07,
2460238.500000000, A.D. 2023-Oct-21 00:00:00.0000, -3.298095914677795E+08, 3.142129542486820E+08, 1.365367248134235E+07,
2460245.500000000, A.D. 2023-Oct-28 00:00:00.0000, -3.369226723059577E+08, 3.064045153592553E+08, 1.306067834494697E+07,
2460252.500000000, A.D. 2023-Nov-04 00:00:00.0000, -3.438628319904451E+08, 2.984387468102264E+08, 1.246098036408675E+07,
2460259.500000000, A.D. 2023-Nov-11 00:00:00.0000, -3.506263677088501E+08, 2.903196164636005E+08, 1.185488133844349E+07,
2460266.500000000, A.D. 2023-Nov-18 00:00:00.0000, -3.572096757236359E+08, 2.820511893333661E+08, 1.124268830933216E+07,
2460273.500000000, A.D. 2023-Nov-25 00:00:00.0000, -3.636092545048721E+08, 2.736376247979909E+08, 1.062471235125178E+07,
2460280.500000000, A.D. 2023-Dec-02 00:00:00.0000, -3.698217077712375E+08, 2.650831735948701E+08, 1.000126835066037E+07,
2460287.500000000, A.D. 2023-Dec-09 00:00:00.0000, -3.758437473548138E+08, 2.563921745415301E+08, 9.372674760426760E+06,
2460294.500000000, A.D. 2023-Dec-16 00:00:00.0000, -3.816721955953990E+08, 2.475690509990346E+08, 8.739253305030942E+06,
2460301.500000000, A.D. 2023-Dec-23 00:00:00.0000, -3.873039869102549E+08, 2.386183077671743E+08, 8.101328661158428E+06,
2460308.500000000, A.D. 2023-Dec-30 00:00:00.0000, -3.927361698765114E+08, 2.295445294633168E+08, 7.459228322711572E+06,
2460315.500000000, A.D. 2024-Jan-06 00:00:00.0000, -3.979659115981629E+08, 2.203523780296125E+08, 6.813282620037690E+06,
2460322.500000000, A.D. 2024-Jan-13 00:00:00.0000, -4.029905011823365E+08, 2.110465875691575E+08, 6.163824454834640E+06,
2460329.500000000, A.D. 2024-Jan-20 00:00:00.0000, -4.078073510964051E+08, 2.016319596011634E+08, 5.511188890828699E+06,
2460336.500000000, A.D. 2024-Jan-27 00:00:00.0000, -4.124139984323350E+08, 1.921133593926164E+08, 4.855712839656502E+06,
2460343.500000000, A.D. 2024-Feb-03 00:00:00.0000, -4.168081065048041E+08, 1.824957124249611E+08, 4.197734803701870E+06,
2460350.500000000, A.D. 2024-Feb-10 00:00:00.0000, -4.209874665023937E+08, 1.727840007116385E+08, 3.537594626785837E+06,
2460357.500000000, A.D. 2024-Feb-17 00:00:00.0000, -4.249499990495007E+08, 1.629832589804995E+08, 2.875633240868658E+06,
2460364.500000000, A.D. 2024-Feb-24 00:00:00.0000, -4.286937556397774E+08, 1.530985707416948E+08, 2.212192406940468E+06,
2460371.500000000, A.D. 2024-Mar-02 00:00:00.0000, -4.322169199088997E+08, 1.431350642142657E+08, 1.547614445050403E+06,
2460378.500000000, A.D. 2024-Mar-09 00:00:00.0000, -4.355178086054016E+08, 1.330979080542112E+08, 8.822419359432235E+05,
2460385.500000000, A.D. 2024-Mar-16 00:00:00.0000, -4.385948718622785E+08, 1.229923070867458E+08, 2.164173745611012E+05,
2460392.500000000, A.D. 2024-Mar-23 00:00:00.0000, -4.414466928716514E+08, 1.128234991569626E+08, -4.495171240339279E+05,
2460399.500000000, A.D. 2024-Mar-30 00:00:00.0000, -4.440719892040880E+08, 1.025967530772494E+08, -1.115219862585172E+06,
2460406.500000000, A.D. 2024-Apr-06 00:00:00.0000, -4.464696155189104E+08, 9.231736431045140E+07, -1.780349641848166E+06,
2460413.500000000, A.D. 2024-Apr-13 00:00:00.0000, -4.486385641148605E+08, 8.199064923313008E+07, -2.444566139967818E+06,
2460420.500000000, A.D. 2024-Apr-20 00:00:00.0000, -4.505779642718739E+08, 7.162194066172732E+07, -3.107530284332667E+06,
2460427.500000000, A.D. 2024-Apr-27 00:00:00.0000, -4.522870819020602E+08, 6.121658408546788E+07, -3.768904522285182E+06,
2460434.500000000, A.D. 2024-May-04 00:00:00.0000, -4.537653194245370E+08, 5.077993390914693E+07, -4.428353055982063E+06,
2460441.500000000, A.D. 2024-May-11 00:00:00.0000, -4.550122156275583E+08, 4.031734961106922E+07, -5.085542071191300E+06,
2460448.500000000, A.D. 2024-May-18 00:00:00.0000, -4.560274454372396E+08, 2.983419184435543E+07, -5.740139965284917E+06,
2460455.500000000, A.D. 2024-May-25 00:00:00.0000, -4.568108195696847E+08, 1.933581848063044E+07, -6.391817576754897E+06,
2460462.500000000, A.D. 2024-Jun-01 00:00:00.0000, -4.573622840086066E+08, 8.827580544549588E+06, -7.040248425899073E+06,
2460469.500000000, A.D. 2024-Jun-08 00:00:00.0000, -4.576819190643466E+08, -1.685181978069758E+06, -7.685108990594704E+06,
2460476.500000000, A.D. 2024-Jun-15 00:00:00.0000, -4.577699376171271E+08, -1.219714390791569E+07, -8.326079008682669E+06,
2460483.500000000, A.D. 2024-Jun-22 00:00:00.0000, -4.576266835522119E+08, -2.270299703554539E+07, -8.962841618170241E+06,
2460490.500000000, A.D. 2024-Jun-29 00:00:00.0000, -4.572526325123544E+08, -3.319745249703726E+07, -9.595083289069517E+06,
2460497.500000000, A.D. 2024-Jul-06 00:00:00.0000, -4.566483923279657E+08, -4.367524582827587E+07, -1.022249399116363E+07,
2460504.500000000, A.D. 2024-Jul-13 00:00:00.0000, -4.558147011795895E+08, -5.413114186799525E+07, -1.084476754524544E+07,
2460511.500000000, A.D. 2024-Jul-20 00:00:00.0000, -4.547524254805453E+08, -6.455993835639924E+07, -1.146160188135792E+07,
2460518.500000000, A.D. 2024-Jul-27 00:00:00.0000, -4.534625581396396E+08, -7.495646918571547E+07, -1.207269922218566E+07,
2460525.500000000, A.D. 2024-Aug-03 00:00:00.0000, -4.519462169365260E+08, -8.531560767392218E+07, -1.267776624738234E+07,
2460532.500000000, A.D. 2024-Aug-10 00:00:00.0000, -4.502046428489783E+08, -9.563226986135322E+07, -1.327651425444499E+07,
2460539.500000000, A.D. 2024-Aug-17 00:00:00.0000, -4.482391982884583E+08, -1.059014178035125E+08, -1.386865931861509E+07,
2460546.500000000, A.D. 2024-Aug-24 00:00:00.0000, -4.460513652188250E+08, -1.161180628780920E+08, -1.445392245604046E+07,
2460553.500000000, A.D. 2024-Aug-31 00:00:00.0000, -4.436427430450917E+08, -1.262772691647076E+08, -1.503202980573332E+07,
2460560.500000000, A.D. 2024-Sep-07 00:00:00.0000, -4.410150459101683E+08, -1.363741567693040E+08, -1.560271285359464E+07,
2460567.500000000, A.D. 2024-Sep-14 00:00:00.0000, -4.381700993191264E+08, -1.464039040962549E+08, -1.616570862519693E+07,
2460574.500000000, A.D. 2024-Sep-21 00:00:00.0000, -4.351098381255690E+08, -1.563617486545515E+08, -1.672075962792416E+07,
2460581.500000000, A.D. 2024-Sep-28 00:00:00.0000, -4.318363063745970E+08, -1.662429896247823E+08, -1.726761376204973E+07,
2460588.500000000, A.D. 2024-Oct-05 00:00:00.0000, -4.283516553402982E+08, -1.760429921833175E+08, -1.780602453759765E+07,
2460595.500000000, A.D. 2024-Oct-12 00:00:00.0000, -4.246581401237400E+08, -1.857571906003717E+08, -1.833575132032803E+07,
2460602.500000000, A.D. 2024-Oct-19 00:00:00.0000, -4.207581165655710E+08, -1.953810903803082E+08, -1.885655946818452E+07,
2460609.500000000, A.D. 2024-Oct-26 00:00:00.0000, -4.166540385090406E+08, -2.049102702447915E+08, -1.936822042071457E+07,
2460616.500000000, A.D. 2024-Nov-02 00:00:00.0000, -4.123484551606464E+08, -2.143403841070178E+08, -1.987051177730778E+07,
2460623.500000000, A.D. 2024-Nov-09 00:00:00.0000, -4.078440084567107E+08, -2.236671630159565E+08, -2.036321737149450E+07,
2460630.500000000, A.D. 2024-Nov-16 00:00:00.0000, -4.031434304145935E+08, -2.328864170698629E+08, -2.084612734365806E+07,
2460637.500000000, A.D. 2024-Nov-23 00:00:00.0000, -3.982495404259286E+08, -2.419940373486830E+08, -2.131903822051799E+07,
2460644.500000000, A.D. 2024-Nov-30 00:00:00.0000, -3.931652422878146E+08, -2.509859979080084E+08, -2.178175302395517E+07,
2460651.500000000, A.D. 2024-Dec-07 00:00:00.0000, -3.878935205566649E+08, -2.598583574141198E+08, -2.223408141323739E+07,
2460658.500000000, A.D. 2024-Dec-14 00:00:00.0000, -3.824374369170739E+08, -2.686072591963549E+08, -2.267583969738278E+07,
2460665.500000000, A.D. 2024-Dec-21 00:00:00.0000, -3.768001288875958E+08, -2.772289309583690E+08, -2.310685060636561E+07,
2460672.500000000, A.D. 2024-Dec-28 00:00:00.0000, -3.709848088952227E+08, -2.857196871176059E+08, -2.352694324470574E+07,
2460679.500000000, A.D. 2025-Jan-04 00:00:00.0000, -3.649947611265174E+08, -2.940759313985320E+08, -2.393595327152169E+07,
2460686.500000000, A.D. 2025-Jan-11 00:00:00.0000, -3.588333379807528E+08, -3.022941580203512E+08, -2.433372300414114E+07,
2460693.500000000, A.D. 2025-Jan-18 00:00:00.0000, -3.525039570447710E+08, -3.103709523986331E+08, -2.472010143599008E+07,
2460700.500000000, A.D. 2025-Jan-25 00:00:00.0000, -3.460100983486555E+08, -3.183029918370095E+08, -2.509494422975515E+07,
2460707.500000000, A.D. 2025-Feb-01 00:00:00.0000, -3.393553017158062E+08, -3.260870462414125E+08, -2.545811370566393E+07,
2460714.500000000, A.D. 2025-Feb-08 00:00:00.0000, -3.325431641525147E+08, -3.337199788396006E+08, -2.580947882865186E+07,
2460721.500000000, A.D. 2025-Feb-15 00:00:00.0000, -3.255773372516506E+08, -3.411987469281786E+08, -2.614891519868846E+07,
$$EOE